NORAD_CAT_ID,OBJECT_NAME,OBJECT_TYPE,EPOCH,MEAN_MOTION,ECCENTRICITY,INCLINATION,RA_OF_ASC_NODE,ARG_OF_PERICENTER,MEAN_ANOMALY,BSTAR,MEAN_MOTION_DOT,MEAN_MOTION_DDOT,TLE_LINE0,TLE_LINE1,TLE_LINE2,SEMIMAJOR_AXIS,PERIOD,APOGEE,PERIGEE,DECAYED
53558.0,STARLINK-4494,PAYLOAD,2023-12-20 14:29:53,15.08841031,0.000165,53.2185,95.4568,55.1715,304.9432,-6.6275e-06,-3.94e-06,0.0,0 STARLINK-4494,1 53558U 22101AH  23354.60409700 -.00000394  00000-0 -66275-5 0  9994,2 53558  53.2185  95.4568 0001650  55.1715 304.9432 15.08841031 74080,6917.877,95.437,540.884,538.601,0.0
53558.0,STARLINK-4494,PAYLOAD,2023-12-21 14:20:40,15.0885051,0.0001585,53.219,90.996,60.1584,299.9566,0.00023124,3.395e-05,0.0,0 STARLINK-4494,1 53558U 22101AH  23355.59768620  .00003395  00000-0  23124-3 0  9998,2 53558  53.2190  90.9960 0001585  60.1584 299.9566 15.08850510 74891,6917.848,95.437,540.81,538.617,0.0
53558.0,STARLINK-4494,PAYLOAD,2023-12-22 11:00:41,15.08841188,0.0001619,53.2188,87.1384,55.4013,304.7132,5.5533e-05,5.96e-06,0.0,0 STARLINK-4494,1 53558U 22101AH  23356.45881893  .00000596  00000-0  55533-4 0  9992,2 53558  53.2188  87.1384 0001619  55.4013 304.7132 15.08841188 74365,6917.877,95.437,540.862,538.622,0.0
53558.0,STARLINK-4494,PAYLOAD,2023-12-22 12:36:05,15.08843087,0.0001882,53.2187,86.842,49.7789,310.3367,7.2282e-05,8.63e-06,0.0,0 STARLINK-4494,1 53558U 22101AH  23356.52505851  .00000863  00000-0  72282-4 0  9994,2 53558  53.2187  86.8420 0001882  49.7789 310.3367 15.08843087 75037,6917.871,95.437,541.038,538.434,0.0
53558.0,STARLINK-4494,PAYLOAD,2023-12-23 12:26:51,15.08846586,0.0001435,53.2179,82.3864,80.7011,279.4144,7.5237e-06,-1.68e-06,0.0,0 STARLINK-4494,1 53558U 22101AH  23357.51865605 -.00000168  00000-0  75237-5 0  9993,2 53558  53.2179  82.3864 0001435  80.7011 279.4144 15.08846586 75189,6917.86,95.437,540.718,538.733,0.0
53558.0,STARLINK-4494,PAYLOAD,2023-12-23 15:37:37,15.08850848,0.0001321,53.2182,81.7733,88.5417,271.5727,-1.8633e-05,-5.85e-06,0.0,0 STARLINK-4494,1 53558U 22101AH  23357.65112993 -.00000585  00000-0 -18633-4 0  9993,2 53558  53.2182  81.7733 0001321  88.5417 271.5727 15.08850848 74546,6917.847,95.437,540.626,538.798,0.0
53558.0,STARLINK-4494,PAYLOAD,2023-12-24 12:17:38,15.0884774,0.0001428,53.2183,77.9145,85.9745,274.1411,0.00012317,1.673e-05,0.0,0 STARLINK-4494,1 53558U 22101AH  23358.51225130  .00001673  00000-0  12317-3 0  9996,2 53558  53.2183  77.9145 0001428  85.9745 274.1411 15.08847740 75338,6917.857,95.437,540.71,538.734,0.0
53558.0,STARLINK-4494,PAYLOAD,2023-12-25 10:33:02,15.08843374,0.0001384,53.217,73.7477,106.2842,253.8302,3.1431e-05,2.12e-06,0.0,0 STARLINK-4494,1 53558U 22101AH  23359.43961581  .00000212  00000-0  31431-4 0  9992,2 53558  53.2170  73.7477 0001384 106.2842 253.8302 15.08843374 74816,6917.87,95.437,540.693,538.778,0.0
53558.0,STARLINK-4494,PAYLOAD,2023-12-26 04:02:17,15.08831519,0.0001283,53.2177,70.4819,112.4062,247.7066,9.8711e-05,1.283e-05,0.0,0 STARLINK-4494,1 53558U 22101AH  23360.16826303  .00001283  00000-0  98711-4 0  9999,2 53558  53.2177  70.4819 0001283 112.4062 247.7066 15.08831519 74927,6917.906,95.438,540.659,538.884,0.0
53558.0,STARLINK-4494,PAYLOAD,2023-12-26 10:23:50,15.08837103,0.0001422,53.2181,69.2894,100.7103,259.4049,-2.1394e-05,-6.28e-06,0.0,0 STARLINK-4494,1 53558U 22101AH  23360.43322518 -.00000628  00000-0 -21394-4 0  9995,2 53558  53.2181  69.2894 0001422 100.7103 259.4049 15.08837103 75626,6917.889,95.438,540.738,538.771,0.0
53558.0,STARLINK-4494,PAYLOAD,2023-12-27 11:50:00,15.08845918,0.000143,53.218,64.5318,93.4045,266.7111,0.0001623,2.296e-05,0.0,0 STARLINK-4494,1 53558U 22101AH  23361.49305928  .00002296  00000-0  16230-3 0  9991,2 53558  53.2180  64.5318 0001430  93.4045 266.7111 15.08845918 75125,6917.862,95.437,540.717,538.738,0.0
53558.0,STARLINK-4494,PAYLOAD,2023-12-27 13:25:23,15.08851154,0.0001664,53.2186,64.2345,108.5204,251.5969,0.0001583,2.233e-05,0.0,0 STARLINK-4494,1 53558U 22101AH  23361.55929561  .00002233  00000-0  15830-3 0  9999,2 53558  53.2186  64.2345 0001664 108.5204 251.5969 15.08851154 75797,6917.846,95.437,540.862,538.56,0.0
53558.0,STARLINK-4494,PAYLOAD,2023-12-28 11:40:48,15.08840044,0.0001562,53.2186,60.0723,76.4565,283.6601,0.0001598,2.256e-05,0.0,0 STARLINK-4494,1 53558U 22101AH  23362.48666737  .00002256  00000-0  15980-3 0  9996,2 53558  53.2186  60.0723 0001562  76.4565 283.6601 15.08840044 75279,6917.88,95.438,540.826,538.665,0.0
53558.0,STARLINK-4494,PAYLOAD,2023-12-29 11:31:35,15.0884645,0.0001447,53.2184,55.6133,89.298,270.8178,3.2615e-06,-2.36e-06,0.0,0 STARLINK-4494,1 53558U 22101AH  23363.48026657 -.00000236  00000-0  32615-5 0  9991,2 53558  53.2184  55.6133 0001447  89.2980 270.8178 15.08846450 76081,6917.861,95.437,540.727,538.725,0.0
53558.0,STARLINK-4494,PAYLOAD,2023-12-29 22:39:16,15.08840975,0.0001459,53.2179,53.5313,107.5098,252.6054,0.00010279,1.348e-05,0.0,0 STARLINK-4494,1 53558U 22101AH  23363.94394652  .00001348  00000-0  10279-3 0  9999,2 53558  53.2179  53.5313 0001459 107.5098 252.6054 15.08840975 75490,6917.877,95.437,540.752,538.733,0.0
53558.0,STARLINK-4494,PAYLOAD,2023-12-30 09:46:58,15.08848197,0.0001484,53.2177,51.4498,86.8935,273.2227,0.0001076,1.425e-05,0.0,0 STARLINK-4494,1 53558U 22101AH  23364.40762373  .00001425  00000-0  10760-3 0  9991,2 53558  53.2177  51.4498 0001484  86.8935 273.2227 15.08848197 76223,6917.855,95.437,540.747,538.694,0.0
53558.0,STARLINK-4494,PAYLOAD,2023-12-31 03:16:13,15.0883626,0.0001825,53.2175,48.182,60.5667,299.5507,0.00011251,1.503e-05,0.0,0 STARLINK-4494,1 53558U 22101AH  23365.13627234  .00001503  00000-0  11251-3 0  9991,2 53558  53.2175  48.1820 0001825  60.5667 299.5507 15.08836260 75671,6917.892,95.438,541.019,538.494,0.0
53558.0,STARLINK-4494,PAYLOAD,2023-12-31 09:37:46,15.08833173,0.00015,53.2174,46.9892,85.374,274.7423,7.5359e-05,9.11e-06,0.0,0 STARLINK-4494,1 53558U 22101AH  23365.40123440  .00000911  00000-0  75359-4 0  9993,2 53558  53.2174  46.9892 0001500  85.3740 274.7423 15.08833173 76372,6917.901,95.438,540.804,538.729,0.0
53558.0,STARLINK-4494,PAYLOAD,2024-01-01 09:28:33,15.088415,0.0001634,53.2183,42.5295,104.1428,255.9746,3.0636e-05,2e-06,0.0,0 STARLINK-4494,1 53558U 22101AH  24001.39482964  .00000200  00000-0  30636-4 0  9998,2 53558  53.2183  42.5295 0001634 104.1428 255.9746 15.08841500 75867,6917.876,95.437,540.871,538.61,0.0
53558.0,STARLINK-4494,PAYLOAD,2024-01-01 12:39:19,15.08849803,0.0001618,53.2186,41.9319,104.8236,255.2936,-5.4216e-05,-1.151e-05,0.0,0 STARLINK-4494,1 53558U 22101AH  24001.52730635 -.00001151  00000-0 -54216-4 0  9992,2 53558  53.2186  41.9319 0001618 104.8236 255.2936 15.08849803 76540,6917.85,95.437,540.835,538.596,0.0
53558.0,STARLINK-4494,PAYLOAD,2024-01-02 02:57:48,15.0883483,0.0001542,53.2182,39.255,98.0361,262.0806,5.3753e-05,5.67e-06,0.0,0 STARLINK-4494,1 53558U 22101AH  24002.12347420  .00000567  00000-0  53753-4 0  9998,2 53558  53.2182  39.2550 0001542  98.0361 262.0806 15.08834830 75974,6917.896,95.438,540.828,538.694,0.0
53558.0,STARLINK-4494,PAYLOAD,2024-01-02 07:43:57,15.08838795,0.0001537,53.2181,38.3628,97.1415,262.9752,8.3493e-05,1.041e-05,0.0,0 STARLINK-4494,1 53558U 22101AH  24002.32219167  .00001041  00000-0  83493-4 0  9998,2 53558  53.2181  38.3628 0001537  97.1415 262.9752 15.08838795 76663,6917.884,95.438,540.812,538.686,0.0
53558.0,STARLINK-4494,PAYLOAD,2024-01-03 10:45:31,15.08837991,0.0001579,53.2184,33.3072,92.4433,267.674,3.6464e-05,2.92e-06,0.0,0 STARLINK-4494,1 53558U 22101AH  24003.44827615  .00000292  00000-0  36464-4 0  9998,2 53558  53.2184  33.3072 0001579  92.4433 267.6740 15.08837991 76170,6917.887,95.438,540.844,538.659,0.0
53558.0,STARLINK-4494,PAYLOAD,2024-01-04 09:00:54,15.08844673,0.0001488,53.2179,29.1478,79.3803,280.7356,8.9074e-05,1.13e-05,0.0,0 STARLINK-4494,1 53558U 22101AH  24004.37563206  .00001130  00000-0  89074-4 0  9991,2 53558  53.2179  29.1478 0001488  79.3803 280.7356 15.08844673 76973,6917.866,95.437,540.76,538.702,0.0
53558.0,STARLINK-4494,PAYLOAD,2024-01-04 23:19:23,15.08837979,0.0001358,53.2178,26.4723,97.9185,262.1961,2.9859e-05,1.87e-06,0.0,0 STARLINK-4494,1 53558U 22101AH  24004.97179771  .00000187  00000-0  29859-4 0  9993,2 53558  53.2178  26.4723 0001358  97.9185 262.1961 15.08837979 76405,6917.887,95.438,540.691,538.812,0.0
53558.0,STARLINK-4494,PAYLOAD,2024-01-05 08:51:42,15.08837731,0.0001345,53.2178,24.688,90.6577,269.457,2.2792e-05,7.5e-07,0.0,0 STARLINK-4494,1 53558U 22101AH  24005.36923908  .00000075  00000-0  22792-4 0  9991,2 53558  53.2178  24.6880 0001345  90.6577 269.4570 15.08837731 77122,6917.887,95.438,540.683,538.822,0.0
53558.0,STARLINK-4494,PAYLOAD,2024-01-06 00:45:33,15.08843747,0.0001475,53.2179,21.7124,90.2726,269.8435,-1.1975e-05,-4.79e-06,0.0,0 STARLINK-4494,1 53558U 22101AH  24006.03163766 -.00000479  00000-0 -11975-4 0  9995,2 53558  53.2179  21.7124 0001475  90.2726 269.8435 15.08843747 76563,6917.869,95.437,540.754,538.714,0.0
53558.0,STARLINK-4494,PAYLOAD,2024-01-06 07:07:05,15.08846294,0.0001382,53.2177,20.5233,85.7419,274.3732,5.0829e-05,5.21e-06,0.0,0 STARLINK-4494,1 53558U 22101AH  24006.29659353  .00000521  00000-0  50829-4 0  9992,2 53558  53.2177  20.5233 0001382  85.7419 274.3732 15.08846294 77263,6917.861,95.437,540.682,538.77,0.0
53558.0,STARLINK-4494,PAYLOAD,2024-01-07 03:47:06,15.0883943,0.0001342,53.2174,16.6574,89.3965,270.7181,8.6708e-05,1.092e-05,0.0,0 STARLINK-4494,1 53558U 22101AH  24007.15771548  .00001092  00000-0  86708-4 0  9998,2 53558  53.2174  16.6574 0001342  89.3965 270.7181 15.08839430 76739,6917.882,95.438,540.676,538.819,0.0
53558.0,STARLINK-4494,PAYLOAD,2024-01-07 10:08:38,15.08844494,0.0001372,53.2174,15.4675,87.0206,273.0943,0.00012667,1.729e-05,0.0,0 STARLINK-4494,1 53558U 22101AH  24007.42267173  .00001729  00000-0  12667-3 0  9991,2 53558  53.2174  15.4675 0001372  87.0206 273.0943 15.08844494 77430,6917.867,95.437,540.681,538.783,0.0
